[{"OBJECT_NAME":"ONEWEB-0495","OBJECT_ID":"2022-138C","EPOCH":"2025-10-24T13:47:55.832064","MEAN_MOTION":13.19724275,"ECCENTRICITY":0.0002069,"INCLINATION":87.9243,"RA_OF_ASC_NODE":351.8537,"ARG_OF_PERICENTER":119.2547,"MEAN_ANOMALY":240.8793,"EPHEMERIS_TYPE":0,"CLASSIFICATION_TYPE":"U","NORAD_CAT_ID":54115,"ELEMENT_SET_NO":999,"REV_AT_EPOCH":14574,"BSTAR":8.9424e-5,"MEAN_MOTION_DOT":4.9e-7,"MEAN_MOTION_DDOT":0},{"OBJECT_NAME":"ONEWEB-0497","OBJECT_ID":"2022-138D","EPOCH":"2025-10-24T12:16:58.401120","MEAN_MOTION":13.19724011,"ECCENTRICITY":0.0001941,"INCLINATION":87.9258,"RA_OF_ASC_NODE":351.8486,"ARG_OF_PERICENTER":101.4629,"MEAN_ANOMALY":258.6722,"EPHEMERIS_TYPE":0,"CLASSIFICATION_TYPE":"U","NORAD_CAT_ID":54116,"ELEMENT_SET_NO":999,"REV_AT_EPOCH":14572,"BSTAR":-6.6378e-5,"MEAN_MOTION_DOT":-1.4e-7,"MEAN_MOTION_DDOT":0},{"OBJECT_NAME":"ONEWEB-0499","OBJECT_ID":"2022-138E","EPOCH":"2025-10-24T17:20:37.474080","MEAN_MOTION":13.19723586,"ECCENTRICITY":0.0001715,"INCLINATION":87.9249,"RA_OF_ASC_NODE":351.8209,"ARG_OF_PERICENTER":100.738,"MEAN_ANOMALY":259.3946,"EPHEMERIS_TYPE":0,"CLASSIFICATION_TYPE":"U","NORAD_CAT_ID":54117,"ELEMENT_SET_NO":999,"REV_AT_EPOCH":14576,"BSTAR":0.00024744,"MEAN_MOTION_DOT":1.12e-6,"MEAN_MOTION_DDOT":0},{"OBJECT_NAME":"ONEWEB-0500","OBJECT_ID":"2022-138F","EPOCH":"2025-10-24T15:34:51.578112","MEAN_MOTION":13.19724773,"ECCENTRICITY":0.0001938,"INCLINATION":87.9249,"RA_OF_ASC_NODE":351.823,"ARG_OF_PERICENTER":97.2032,"MEAN_ANOMALY":262.9321,"EPHEMERIS_TYPE":0,"CLASSIFICATION_TYPE":"U","NORAD_CAT_ID":54118,"ELEMENT_SET_NO":999,"REV_AT_EPOCH":14576,"BSTAR":0.00016337,"MEAN_MOTION_DOT":7.8e-7,"MEAN_MOTION_DDOT":0},{"OBJECT_NAME":"ONEWEB-0501","OBJECT_ID":"2022-138G","EPOCH":"2025-10-24T14:28:54.419232","MEAN_MOTION":13.19725253,"ECCENTRICITY":0.0001992,"INCLINATION":87.9258,"RA_OF_ASC_NODE":351.8264,"ARG_OF_PERICENTER":110.9184,"MEAN_ANOMALY":249.2162,"EPHEMERIS_TYPE":0,"CLASSIFICATION_TYPE":"U","NORAD_CAT_ID":54119,"ELEMENT_SET_NO":999,"REV_AT_EPOCH":14573,"BSTAR":-5.0507e-5,"MEAN_MOTION_DOT":-7.0e-8,"MEAN_MOTION_DDOT":0},{"OBJECT_NAME":"ONEWEB-0502","OBJECT_ID":"2022-138H","EPOCH":"2025-10-24T10:30:04.434912","MEAN_MOTION":13.19725747,"ECCENTRICITY":0.0001769,"INCLINATION":87.9256,"RA_OF_ASC_NODE":351.8417,"ARG_OF_PERICENTER":106.2473,"MEAN_ANOMALY":253.8854,"EPHEMERIS_TYPE":0,"CLASSIFICATION_TYPE":"U","NORAD_CAT_ID":54120,"ELEMENT_SET_NO":999,"REV_AT_EPOCH":14573,"BSTAR":0.00027562,"MEAN_MOTION_DOT":1.23e-6,"MEAN_MOTION_DDOT":0},{"OBJECT_NAME":"ONEWEB-0503","OBJECT_ID":"2022-138J","EPOCH":"2025-10-24T13:52:30.055296","MEAN_MOTION":13.19724652,"ECCENTRICITY":0.0001607,"INCLINATION":87.9257,"RA_OF_ASC_NODE":351.818,"ARG_OF_PERICENTER":96.545,"MEAN_ANOMALY":263.5865,"EPHEMERIS_TYPE":0,"CLASSIFICATION_TYPE":"U","NORAD_CAT_ID":54121,"ELEMENT_SET_NO":999,"REV_AT_EPOCH":14574,"BSTAR":0.0002214,"MEAN_MOTION_DOT":1.02e-6,"MEAN_MOTION_DDOT":0},{"OBJECT_NAME":"ONEWEB-0504","OBJECT_ID":"2022-138K","EPOCH":"2025-10-24T17:12:39.738240","MEAN_MOTION":13.19724455,"ECCENTRICITY":0.0001684,"INCLINATION":87.9252,"RA_OF_ASC_NODE":351.8079,"ARG_OF_PERICENTER":107.1221,"MEAN_ANOMALY":253.0096,"EPHEMERIS_TYPE":0,"CLASSIFICATION_TYPE":"U","NORAD_CAT_ID":54122,"ELEMENT_SET_NO":999,"REV_AT_EPOCH":14577,"BSTAR":0.00010713,"MEAN_MOTION_DOT":5.6e-7,"MEAN_MOTION_DDOT":0},{"OBJECT_NAME":"ONEWEB-0505","OBJECT_ID":"2022-138L","EPOCH":"2025-10-24T17:08:06.836928","MEAN_MOTION":13.197245,"ECCENTRICITY":0.0001846,"INCLINATION":87.9257,"RA_OF_ASC_NODE":351.7968,"ARG_OF_PERICENTER":116.2653,"MEAN_ANOMALY":243.867,"EPHEMERIS_TYPE":0,"CLASSIFICATION_TYPE":"U","NORAD_CAT_ID":54123,"ELEMENT_SET_NO":999,"REV_AT_EPOCH":14575,"BSTAR":0.00015446,"MEAN_MOTION_DOT":7.5e-7,"MEAN_MOTION_DDOT":0},{"OBJECT_NAME":"ONEWEB-0506","OBJECT_ID":"2022-138M","EPOCH":"2025-10-24T14:42:32.688576","MEAN_MOTION":13.19724466,"ECCENTRICITY":0.0001868,"INCLINATION":87.926,"RA_OF_ASC_NODE":351.8138,"ARG_OF_PERICENTER":104.8046,"MEAN_ANOMALY":255.3294,"EPHEMERIS_TYPE":0,"CLASSIFICATION_TYPE":"U","NORAD_CAT_ID":54124,"ELEMENT_SET_NO":999,"REV_AT_EPOCH":14573,"BSTAR":-0.00010075,"MEAN_MOTION_DOT":-2.7e-7,"MEAN_MOTION_DDOT":0},{"OBJECT_NAME":"ONEWEB-0507","OBJECT_ID":"2022-138N","EPOCH":"2025-10-24T17:01:17.160096","MEAN_MOTION":13.19724521,"ECCENTRICITY":0.0001928,"INCLINATION":87.924,"RA_OF_ASC_NODE":351.8384,"ARG_OF_PERICENTER":105.1636,"MEAN_ANOMALY":254.9711,"EPHEMERIS_TYPE":0,"CLASSIFICATION_TYPE":"U","NORAD_CAT_ID":54125,"ELEMENT_SET_NO":999,"REV_AT_EPOCH":14579,"BSTAR":-4.5592e-5,"MEAN_MOTION_DOT":-5.0e-8,"MEAN_MOTION_DDOT":0},{"OBJECT_NAME":"ONEWEB-0508","OBJECT_ID":"2022-138P","EPOCH":"2025-10-24T16:56:44.359008","MEAN_MOTION":13.19725165,"ECCENTRICITY":0.0001976,"INCLINATION":87.9251,"RA_OF_ASC_NODE":351.828,"ARG_OF_PERICENTER":109.6558,"MEAN_ANOMALY":250.4789,"EPHEMERIS_TYPE":0,"CLASSIFICATION_TYPE":"U","NORAD_CAT_ID":54126,"ELEMENT_SET_NO":999,"REV_AT_EPOCH":14577,"BSTAR":1.2976e-6,"MEAN_MOTION_DOT":1.3e-7,"MEAN_MOTION_DDOT":0},{"OBJECT_NAME":"ONEWEB-0509","OBJECT_ID":"2022-138Q","EPOCH":"2025-10-24T10:52:48.639936","MEAN_MOTION":13.19724988,"ECCENTRICITY":0.0001934,"INCLINATION":87.9261,"RA_OF_ASC_NODE":351.8442,"ARG_OF_PERICENTER":102.7231,"MEAN_ANOMALY":257.4118,"EPHEMERIS_TYPE":0,"CLASSIFICATION_TYPE":"U","NORAD_CAT_ID":54127,"ELEMENT_SET_NO":999,"REV_AT_EPOCH":14571,"BSTAR":2.2798e-5,"MEAN_MOTION_DOT":2.2e-7,"MEAN_MOTION_DDOT":0},{"OBJECT_NAME":"ONEWEB-0510","OBJECT_ID":"2022-138R","EPOCH":"2025-10-24T10:51:03.162816","MEAN_MOTION":13.20770548,"ECCENTRICITY":0.0001964,"INCLINATION":87.9197,"RA_OF_ASC_NODE":321.4521,"ARG_OF_PERICENTER":78.492,"MEAN_ANOMALY":281.6434,"EPHEMERIS_TYPE":0,"CLASSIFICATION_TYPE":"U","NORAD_CAT_ID":54128,"ELEMENT_SET_NO":999,"REV_AT_EPOCH":14816,"BSTAR":-7.6278e-5,"MEAN_MOTION_DOT":-1.8e-7,"MEAN_MOTION_DDOT":0},{"OBJECT_NAME":"ONEWEB-0511","OBJECT_ID":"2022-138S","EPOCH":"2025-10-24T10:48:16.213824","MEAN_MOTION":13.19725088,"ECCENTRICITY":0.0001643,"INCLINATION":87.926,"RA_OF_ASC_NODE":351.8489,"ARG_OF_PERICENTER":98.847,"MEAN_ANOMALY":261.2849,"EPHEMERIS_TYPE":0,"CLASSIFICATION_TYPE":"U","NORAD_CAT_ID":54129,"ELEMENT_SET_NO":999,"REV_AT_EPOCH":14574,"BSTAR":2.0006e-6,"MEAN_MOTION_DOT":1.4e-7,"MEAN_MOTION_DDOT":0},{"OBJECT_NAME":"ONEWEB-0512","OBJECT_ID":"2022-138T","EPOCH":"2025-10-24T05:09:21.837312","MEAN_MOTION":13.19725388,"ECCENTRICITY":0.0001805,"INCLINATION":87.924,"RA_OF_ASC_NODE":351.9281,"ARG_OF_PERICENTER":110.8139,"MEAN_ANOMALY":249.3187,"EPHEMERIS_TYPE":0,"CLASSIFICATION_TYPE":"U","NORAD_CAT_ID":54130,"ELEMENT_SET_NO":999,"REV_AT_EPOCH":14568,"BSTAR":1.501e-5,"MEAN_MOTION_DOT":1.9e-7,"MEAN_MOTION_DDOT":0},{"OBJECT_NAME":"ONEWEB-0513","OBJECT_ID":"2022-138U","EPOCH":"2025-10-24T16:44:03.073056","MEAN_MOTION":13.20317695,"ECCENTRICITY":0.0001437,"INCLINATION":87.9264,"RA_OF_ASC_NODE":351.7931,"ARG_OF_PERICENTER":114.787,"MEAN_ANOMALY":245.3413,"EPHEMERIS_TYPE":0,"CLASSIFICATION_TYPE":"U","NORAD_CAT_ID":54131,"ELEMENT_SET_NO":999,"REV_AT_EPOCH":14564,"BSTAR":-0.00011239,"MEAN_MOTION_DOT":-3.2e-7,"MEAN_MOTION_DDOT":0}]
