ONEWEB-0495             
1 54115U 22138C   25297.57495176  .00000049  00000+0  89424-4 0  9994
2 54115  87.9243 351.8537 0002069 119.2547 240.8793 13.19724275145744
ONEWEB-0497             
1 54116U 22138D   25297.51178705 -.00000014  00000+0 -66378-4 0  9992
2 54116  87.9258 351.8486 0001941 101.4629 258.6722 13.19724011145721
ONEWEB-0499             
1 54117U 22138E   25297.72265595  .00000112  00000+0  24744-3 0  9997
2 54117  87.9249 351.8209 0001715 100.7380 259.3946 13.19723586145766
ONEWEB-0500             
1 54118U 22138F   25297.64920808  .00000078  00000+0  16337-3 0  9994
2 54118  87.9249 351.8230 0001938  97.2032 262.9321 13.19724773145768
ONEWEB-0501             
1 54119U 22138G   25297.60340763 -.00000007  00000+0 -50507-4 0  9999
2 54119  87.9258 351.8264 0001992 110.9184 249.2162 13.19725253145739
ONEWEB-0502             
1 54120U 22138H   25297.43755133  .00000123  00000+0  27562-3 0  9994
2 54120  87.9256 351.8417 0001769 106.2473 253.8854 13.19725747145737
ONEWEB-0503             
1 54121U 22138J   25297.57812564  .00000102  00000+0  22140-3 0  9996
2 54121  87.9257 351.8180 0001607  96.5450 263.5865 13.19724652145748
ONEWEB-0504             
1 54122U 22138K   25297.71712660  .00000056  00000+0  10713-3 0  9990
2 54122  87.9252 351.8079 0001684 107.1221 253.0096 13.19724455145775
ONEWEB-0505             
1 54123U 22138L   25297.71396802  .00000075  00000+0  15446-3 0  9996
2 54123  87.9257 351.7968 0001846 116.2653 243.8670 13.19724500145751
ONEWEB-0506             
1 54124U 22138M   25297.61287834 -.00000027  00000+0 -10075-3 0  9992
2 54124  87.9260 351.8138 0001868 104.8046 255.3294 13.19724466145738
ONEWEB-0507             
1 54125U 22138N   25297.70922639 -.00000005  00000+0 -45592-4 0  9991
2 54125  87.9240 351.8384 0001928 105.1636 254.9711 13.19724521145793
ONEWEB-0508             
1 54126U 22138P   25297.70606897  .00000013  00000+0  12976-5 0  9995
2 54126  87.9251 351.8280 0001976 109.6558 250.4789 13.19725165145775
ONEWEB-0509             
1 54127U 22138Q   25297.45334074  .00000022  00000+0  22798-4 0  9995
2 54127  87.9261 351.8442 0001934 102.7231 257.4118 13.19724988145712
ONEWEB-0510             
1 54128U 22138R   25297.45211994 -.00000018  00000+0 -76278-4 0  9990
2 54128  87.9197 321.4521 0001964  78.4920 281.6434 13.20770548148166
ONEWEB-0511             
1 54129U 22138S   25297.45018766  .00000014  00000+0  20006-5 0  9996
2 54129  87.9260 351.8489 0001643  98.8470 261.2849 13.19725088145740
ONEWEB-0512             
1 54130U 22138T   25297.21483608  .00000019  00000+0  15010-4 0  9996
2 54130  87.9240 351.9281 0001805 110.8139 249.3187 13.19725388145686
ONEWEB-0513             
1 54131U 22138U   25297.69725779 -.00000032  00000+0 -11239-3 0  9992
2 54131  87.9264 351.7931 0001437 114.7870 245.3413 13.20317695145643
